{
    "links": {
        "self": "http://www.neowsapp.com/rest/v1/neo/3776120?api_key=iIulBulltgU6a56xZRHN4H3l9WmuAYTsLGpBGhQ2"
    },
    "id": "3776120",
    "neo_reference_id": "3776120",
    "name": "(2017 MP7)",
    "designation": "2017 MP7",
    "nasa_jpl_url": "http://ssd.jpl.nasa.gov/sbdb.cgi?sstr=3776120",
    "absolute_magnitude_h": 25.4,
    "estimated_diameter": {
        "kilometers": {
            "estimated_diameter_min": 0.022108281,
            "estimated_diameter_max": 0.0494356193
        },
        "meters": {
            "estimated_diameter_min": 22.1082810359,
            "estimated_diameter_max": 49.435619262
        },
        "miles": {
            "estimated_diameter_min": 0.0137374447,
            "estimated_diameter_max": 0.0307178602
        },
        "feet": {
            "estimated_diameter_min": 72.5337327539,
            "estimated_diameter_max": 162.1903570994
        }
    },
    "is_potentially_hazardous_asteroid": false,
    "close_approach_data": [
        {
            "close_approach_date": "2017-07-08",
            "close_approach_date_full": "2017-Jul-08 19:28",
            "epoch_date_close_approach": 1499542080000,
            "relative_velocity": {
                "kilometers_per_second": "8.2176415352",
                "kilometers_per_hour": "29583.5095266809",
                "miles_per_hour": "18382.0423500646"
            },
            "miss_distance": {
                "astronomical": "0.0281038891",
                "lunar": "10.9324128599",
                "kilometers": "4204281.948076217",
                "miles": "2612419.6630251146"
            },
            "orbiting_body": "Earth"
        }
    ],
    "orbital_data": {
        "orbit_id": "4",
        "orbit_determination_date": "2017-07-03 06:20:15",
        "first_observation_date": "2017-06-27",
        "last_observation_date": "2017-07-03",
        "data_arc_in_days": 6,
        "observations_used": 40,
        "orbit_uncertainty": "8",
        "minimum_orbit_intersection": ".0272563",
        "jupiter_tisserand_invariant": "3.332",
        "epoch_osculation": "2457933.5",
        "eccentricity": ".5559480542853611",
        "semi_major_axis": "2.337418413895942",
        "inclination": "6.917143550767976",
        "ascending_node_longitude": "99.6511417551188",
        "orbital_period": "1305.278301243947",
        "perihelion_distance": "1.037935194639718",
        "perihelion_argument": "193.1232240482585",
        "aphelion_distance": "3.636901633152165",
        "perihelion_time": "2457948.834326180823",
        "mean_anomaly": "355.7707429750151",
        "mean_motion": ".2758032518099131",
        "equinox": "J2000",
        "orbit_class": {
            "orbit_class_type": "AMO",
            "orbit_class_description": "Near-Earth asteroid orbits similar to that of 1221 Amor",
            "orbit_class_range": "1.017 AU < q (perihelion) < 1.3 AU"
        }
    },
    "is_sentry_object": false
}